{
  "type": "FeatureCollection",
  "features": [
    {
      "type": "Feature",
      "properties": {
        "norad_id": 66562,
        "name": "STARLINK-35579",
        "group": "last-30-days",
        "lat": -26.904551188593278,
        "lon": 52.177459105847454,
        "alt_km": 416.3419638037749,
        "timestamp": "2025-12-18T21:31:49.698102+00:00",
        "meta_object_name": "STARLINK-35579",
        "meta_object_id": "2025-268F",
        "meta_epoch": "2025-12-18T00:04:00.227424",
        "meta_mean_motion": 15.50586039,
        "meta_eccentricity": 0.00017317,
        "meta_inclination": 43.0006,
        "meta_ra_of_asc_node": 90.4028,
        "meta_arg_of_pericenter": 264.7288,
        "meta_mean_anomaly": 95.3375,
        "meta_ephemeris_type": 0,
        "meta_classification_type": "U",
        "meta_norad_cat_id": 66562,
        "meta_element_set_no": 999,
        "meta_rev_at_epoch": 544,
        "meta_bstar": 0.0012420253,
        "meta_mean_motion_dot": 0.00073226,
        "meta_mean_motion_ddot": 0,
        "tle_line1": "1 66562U 25268F   25352.00278041  .00073226  00000+0  12420-2 0  9997",
        "tle_line2": "2 66562  43.0006  90.4028 0001731 264.7288  95.3375 15.50586039  5449"
      },
      "geometry": {
        "type": "Point",
        "coordinates": [
          52.177459105847454,
          -26.904551188593278
        ]
      }
    },
    {
      "type": "Feature",
      "properties": {
        "norad_id": 66563,
        "name": "STARLINK-35437",
        "group": "last-30-days",
        "lat": -24.589813088927666,
        "lon": 55.747912902373706,
        "alt_km": 416.1209900322756,
        "timestamp": "2025-12-18T21:31:49.698112+00:00",
        "meta_object_name": "STARLINK-35437",
        "meta_object_id": "2025-268G",
        "meta_epoch": "2025-12-18T00:02:59.029440",
        "meta_mean_motion": 15.50597611,
        "meta_eccentricity": 0.00016674,
        "meta_inclination": 42.9987,
        "meta_ra_of_asc_node": 90.3988,
        "meta_arg_of_pericenter": 275.2457,
        "meta_mean_anomaly": 84.8212,
        "meta_ephemeris_type": 0,
        "meta_classification_type": "U",
        "meta_norad_cat_id": 66563,
        "meta_element_set_no": 999,
        "meta_rev_at_epoch": 544,
        "meta_bstar": 0.0011024154,
        "meta_mean_motion_dot": 0.00064914,
        "meta_mean_motion_ddot": 0,
        "tle_line1": "1 66563U 25268G   25352.00207210  .00064914  00000+0  11024-2 0  9991",
        "tle_line2": "2 66563  42.9987  90.3988 0001667 275.2457  84.8212 15.50597611  5444"
      },
      "geometry": {
        "type": "Point",
        "coordinates": [
          55.747912902373706,
          -24.589813088927666
        ]
      }
    },
    {
      "type": "Feature",
      "properties": {
        "norad_id": 66564,
        "name": "STARLINK-35358",
        "group": "last-30-days",
        "lat": -23.430496384450194,
        "lon": 57.44461087546236,
        "alt_km": 415.77620203867355,
        "timestamp": "2025-12-18T21:31:49.698124+00:00",
        "meta_object_name": "STARLINK-35358",
        "meta_object_id": "2025-268H",
        "meta_epoch": "2025-12-18T00:02:29.171328",
        "meta_mean_motion": 15.50596952,
        "meta_eccentricity": 0.00023862,
        "meta_inclination": 43.0032,
        "meta_ra_of_asc_node": 90.3946,
        "meta_arg_of_pericenter": 270.3496,
        "meta_mean_anomaly": 89.709,
        "meta_ephemeris_type": 0,
        "meta_classification_type": "U",
        "meta_norad_cat_id": 66564,
        "meta_element_set_no": 999,
        "meta_rev_at_epoch": 544,
        "meta_bstar": 0.0011847753,
        "meta_mean_motion_dot": 0.00069834,
        "meta_mean_motion_ddot": 0,
        "tle_line1": "1 66564U 25268H   25352.00172652  .00069834  00000+0  11848-2 0  9993",
        "tle_line2": "2 66564  43.0032  90.3946 0002386 270.3496  89.7090 15.50596952  5445"
      },
      "geometry": {
        "type": "Point",
        "coordinates": [
          57.44461087546236,
          -23.430496384450194
        ]
      }
    },
    {
      "type": "Feature",
      "properties": {
        "norad_id": 66565,
        "name": "STARLINK-35893",
        "group": "last-30-days",
        "lat": -22.2641027373909,
        "lon": 59.09100442588662,
        "alt_km": 415.8351900257294,
        "timestamp": "2025-12-18T21:31:49.698135+00:00",
        "meta_object_name": "STARLINK-35893",
        "meta_object_id": "2025-268J",
        "meta_epoch": "2025-12-18T00:01:59.584512",
        "meta_mean_motion": 15.50595913,
        "meta_eccentricity": 0.00021644,
        "meta_inclination": 43.0022,
        "meta_ra_of_asc_node": 90.3916,
        "meta_arg_of_pericenter": 269.1523,
        "meta_mean_anomaly": 90.909,
        "meta_ephemeris_type": 0,
        "meta_classification_type": "U",
        "meta_norad_cat_id": 66565,
        "meta_element_set_no": 999,
        "meta_rev_at_epoch": 544,
        "meta_bstar": 0.0012222633,
        "meta_mean_motion_dot": 0.00072071,
        "meta_mean_motion_ddot": 0,
        "tle_line1": "1 66565U 25268J   25352.00138408  .00072071  00000+0  12223-2 0  9990",
        "tle_line2": "2 66565  43.0022  90.3916 0002164 269.1523  90.9090 15.50595913  5443"
      },
      "geometry": {
        "type": "Point",
        "coordinates": [
          59.09100442588662,
          -22.2641027373909
        ]
      }
    },
    {
      "type": "Feature",
      "properties": {
        "norad_id": 66566,
        "name": "STARLINK-35871",
        "group": "last-30-days",
        "lat": -21.270162639008575,
        "lon": 60.452453892249935,
        "alt_km": 416.4863832252631,
        "timestamp": "2025-12-18T21:31:49.698145+00:00",
        "meta_object_name": "STARLINK-35871",
        "meta_object_id": "2025-268K",
        "meta_epoch": "2025-12-18T00:00:02.000160",
        "meta_mean_motion": 15.50546235,
        "meta_eccentricity": 0.00015524,
        "meta_inclination": 43.001,
        "meta_ra_of_asc_node": 90.3927,
        "meta_arg_of_pericenter": 267.7288,
        "meta_mean_anomaly": 86.6648,
        "meta_ephemeris_type": 0,
        "meta_classification_type": "U",
        "meta_norad_cat_id": 66566,
        "meta_element_set_no": 999,
        "meta_rev_at_epoch": 551,
        "meta_bstar": 0.00028776035,
        "meta_mean_motion_dot": 0.00016556,
        "meta_mean_motion_ddot": 0,
        "tle_line1": "1 66566U 25268K   25352.00002315  .00016556  00000+0  28776-3 0  9995",
        "tle_line2": "2 66566  43.0010  90.3927 0001552 267.7288  86.6648 15.50546235  5517"
      },
      "geometry": {
        "type": "Point",
        "coordinates": [
          60.452453892249935,
          -21.270162639008575
        ]
      }
    },
    {
      "type": "Feature",
      "properties": {
        "norad_id": 66567,
        "name": "STARLINK-35825",
        "group": "last-30-days",
        "lat": -19.843029149589324,
        "lon": 62.355425798733286,
        "alt_km": 415.8385542402466,
        "timestamp": "2025-12-18T21:31:49.698154+00:00",
        "meta_object_name": "STARLINK-35825",
        "meta_object_id": "2025-268L",
        "meta_epoch": "2025-12-18T00:01:00.568128",
        "meta_mean_motion": 15.50603339,
        "meta_eccentricity": 0.00014546,
        "meta_inclination": 42.9998,
        "meta_ra_of_asc_node": 90.3853,
        "meta_arg_of_pericenter": 270.9237,
        "meta_mean_anomaly": 89.1456,
        "meta_ephemeris_type": 0,
        "meta_classification_type": "U",
        "meta_norad_cat_id": 66567,
        "meta_element_set_no": 999,
        "meta_rev_at_epoch": 544,
        "meta_bstar": 0.0015567358,
        "meta_mean_motion_dot": 0.00092146,
        "meta_mean_motion_ddot": 0,
        "tle_line1": "1 66567U 25268L   25352.00070102  .00092146  00000+0  15567-2 0  9997",
        "tle_line2": "2 66567  42.9998  90.3853 0001454 270.9237  89.1456 15.50603339  5446"
      },
      "geometry": {
        "type": "Point",
        "coordinates": [
          62.355425798733286,
          -19.843029149589324
        ]
      }
    },
    {
      "type": "Feature",
      "properties": {
        "norad_id": 66568,
        "name": "STARLINK-35803",
        "group": "last-30-days",
        "lat": -18.644660322907637,
        "lon": 63.90372286823869,
        "alt_km": 416.13950919888157,
        "timestamp": "2025-12-18T21:31:49.698164+00:00",
        "meta_object_name": "STARLINK-35803",
        "meta_object_id": "2025-268M",
        "meta_epoch": "2025-12-18T00:00:31.378752",
        "meta_mean_motion": 15.50604278,
        "meta_eccentricity": 2.905e-05,
        "meta_inclination": 42.9973,
        "meta_ra_of_asc_node": 90.3815,
        "meta_arg_of_pericenter": 304.0153,
        "meta_mean_anomaly": 56.068,
        "meta_ephemeris_type": 0,
        "meta_classification_type": "U",
        "meta_norad_cat_id": 66568,
        "meta_element_set_no": 999,
        "meta_rev_at_epoch": 544,
        "meta_bstar": 0.0015659743,
        "meta_mean_motion_dot": 0.00092705,
        "meta_mean_motion_ddot": 0,
        "tle_line1": "1 66568U 25268M   25352.00036318  .00092705  00000+0  15660-2 0  9994",
        "tle_line2": "2 66568  42.9973  90.3815 0000290 304.0153  56.0680 15.50604278  5446"
      },
      "geometry": {
        "type": "Point",
        "coordinates": [
          63.90372286823869,
          -18.644660322907637
        ]
      }
    }
  ]
}